STARLINK-31189          
1 58787U 24012A   26068.31969432 -.00000278  00000+0 -59323-6 0  9999
2 58787  43.0004 166.9767 0000765 234.6094 125.4687 15.27572094121184
FLOCK 4G-10             
1 62670U 25009BP  26068.70827885  .00013952  00000+0  52624-3 0  9995
2 62670  97.3967 150.5883 0003469 341.4844  18.6269 15.27155944121340
